0 SL-3 DEB
1 35516U 82116H   13281.18663220  .00000113  00000-0  49309-4 0  3090
2 35516 081.2535 221.9571 0066208 185.8078 174.2338 14.16219237585194
0 SL-3 DEB
1 35516U 82116H   13284.15396043  .00000110  00000-0  48136-4 0  3102
2 35516 081.2535 219.0396 0066531 177.0751 183.0828 14.16219774585612
0 SL-3 DEB
1 35516U 82116H   13287.12128774  .00000117  00000-0  51539-4 0  3115
2 35516 081.2540 216.1272 0066737 168.5017 191.7760 14.16220578586039
0 SL-3 DEB
1 35516U 82116H   13289.52340597  .00000128  00000-0  56845-4 0  3128
2 35516 081.2543 213.7682 0066558 161.6731 198.6882 14.16221412586374
0 SL-3 DEB
1 35516U 82116H   13292.49072633  .00000135  00000-0  60310-4 0  3132
2 35516 081.2543 210.8531 0066692 153.1363 207.3302 14.16222370586796
0 SL-3 DEB
1 35516U 82116H   13295.03414203  .00000138  00000-0  61840-4 0  3141
2 35516 081.2546 208.3535 0067066 145.8082 214.7476 14.16223121587157
